SL-14 R/B               
1 16792U 86046B   26045.63703840  .00000474  00000+0  51837-4 0  9999
2 16792  82.4804 101.9683 0021797 306.4810  53.4397 14.85567681122983
SL-14 R/B               
1 16882U 86055B   26045.36456102  .00000579  00000+0  63906-4 0  9991
2 16882  82.5234 148.5918 0020076  52.4439  11.8688 14.85618797115903
AJISAI (EGS)            
1 16908U 86061A   26045.65783389 -.00000109  00000+0 -84610-4 0  9995
2 16908  50.0081 164.1706 0011234 227.6393 158.8108 12.44515356465134
COSMOS 1812             
1 17295U 87003A   26045.62984848  .00318950  40430-4  66629-3 0  9991
2 17295  82.4758 221.8697 0002157 306.3175  53.7903 15.98979272140770
SL-14 R/B               
1 17567U 87024B   26045.61152196  .00000473  00000+0  51070-4 0  9995
2 17567  82.5281 114.4558 0017632 341.9587  18.1002 14.86109906 84703
COSMOS 1833             
1 17589U 87027A   26045.35815306 -.00000009  00000+0  20720-4 0  9996
2 17589  70.9223  15.0517 0024905 245.9636 113.8878 14.13057279  7023
SL-16 R/B               
1 17590U 87027B   26045.18764551 -.00000024  00000+0  11843-4 0  9997
2 17590  71.0045 326.0188 0004743 184.2122 175.8962 14.17162834 12016
SL-14 R/B               
1 17912U 87038B   26045.25776772  .00000547  00000+0  60754-4 0  9997
2 17912  82.5039 318.8773 0017794 240.0339 119.9111 14.85346842 75757
COSMOS 1844             
1 17973U 87041A   26045.55947954  .00000438  00000+0  25223-3 0  9993
2 17973  70.8979  82.9655 0028993  54.8803 305.5030 14.14546311   313
SL-14 R/B               
1 18153U 87055B   26045.37351623  .00000637  00000+0  70450-4 0  9995
2 18153  82.5005  11.0016 0022334  90.6091 269.7684 14.85600005 66472
COSMOS 1867             
1 18187U 87060A   26045.31706368 -.00000006  00000+0  35547-4 0  9991
2 18187  65.0118  12.1570 0014157 277.0210  82.9265 14.31499277 16591
SL-14 R/B               
1 18749U 88001B   26045.43455467  .00000587  00000+0  65111-4 0  9998
2 18749  82.5112 217.2320 0017038 319.1016  40.8921 14.85499105 38570
