CCSDS_OMM_VERS = 2.0
CREATION_DATE  = 
ORIGINATOR     = 

OBJECT_NAME    = SL-14 R/B
OBJECT_ID      = 1986-046B
CENTER_NAME    = EARTH
REF_FRAME      = TEME
TIME_SYSTEM    = UTC
MEAN_ELEMENT_THEORY = SGP/SGP4

EPOCH          = 2026-02-14T15:17:20.117760
MEAN_MOTION    = 14.85567681
ECCENTRICITY   = .0021797
INCLINATION    = 82.4804
RA_OF_ASC_NODE = 101.9683
ARG_OF_PERICENTER = 306.4810
MEAN_ANOMALY   = 53.4397

EPHEMERIS_TYPE = 0
CLASSIFICATION_TYPE = U
NORAD_CAT_ID   = 16792
ELEMENT_SET_NO = 999
REV_AT_EPOCH   = 12298
BSTAR          = .51837E-4
MEAN_MOTION_DOT = .474E-5
MEAN_MOTION_DDOT = 0

CCSDS_OMM_VERS = 2.0
CREATION_DATE  = 
ORIGINATOR     = 

OBJECT_NAME    = SL-14 R/B
OBJECT_ID      = 1986-055B
CENTER_NAME    = EARTH
REF_FRAME      = TEME
TIME_SYSTEM    = UTC
MEAN_ELEMENT_THEORY = SGP/SGP4

EPOCH          = 2026-02-14T08:44:58.072128
MEAN_MOTION    = 14.85618797
ECCENTRICITY   = .0020076
INCLINATION    = 82.5234
RA_OF_ASC_NODE = 148.5918
ARG_OF_PERICENTER = 52.4439
MEAN_ANOMALY   = 11.8688

EPHEMERIS_TYPE = 0
CLASSIFICATION_TYPE = U
NORAD_CAT_ID   = 16882
ELEMENT_SET_NO = 999
REV_AT_EPOCH   = 11590
BSTAR          = .63906E-4
MEAN_MOTION_DOT = .579E-5
MEAN_MOTION_DDOT = 0

CCSDS_OMM_VERS = 2.0
CREATION_DATE  = 
ORIGINATOR     = 

OBJECT_NAME    = AJISAI (EGS)
OBJECT_ID      = 1986-061A
CENTER_NAME    = EARTH
REF_FRAME      = TEME
TIME_SYSTEM    = UTC
MEAN_ELEMENT_THEORY = SGP/SGP4

EPOCH          = 2026-02-14T15:47:16.848096
MEAN_MOTION    = 12.44515356
ECCENTRICITY   = .0011234
INCLINATION    = 50.0081
RA_OF_ASC_NODE = 164.1706
ARG_OF_PERICENTER = 227.6393
MEAN_ANOMALY   = 158.8108

EPHEMERIS_TYPE = 0
CLASSIFICATION_TYPE = U
NORAD_CAT_ID   = 16908
ELEMENT_SET_NO = 999
REV_AT_EPOCH   = 46513
BSTAR          = -.8461E-4
MEAN_MOTION_DOT = -.109E-5
MEAN_MOTION_DDOT = 0

CCSDS_OMM_VERS = 2.0
CREATION_DATE  = 
ORIGINATOR     = 

OBJECT_NAME    = COSMOS 1812
OBJECT_ID      = 1987-003A
CENTER_NAME    = EARTH
REF_FRAME      = TEME
TIME_SYSTEM    = UTC
MEAN_ELEMENT_THEORY = SGP/SGP4

EPOCH          = 2026-02-14T15:06:58.908672
MEAN_MOTION    = 15.98979272
ECCENTRICITY   = .0002157
INCLINATION    = 82.4758
RA_OF_ASC_NODE = 221.8697
ARG_OF_PERICENTER = 306.3175
MEAN_ANOMALY   = 53.7903

EPHEMERIS_TYPE = 0
CLASSIFICATION_TYPE = U
NORAD_CAT_ID   = 17295
ELEMENT_SET_NO = 999
REV_AT_EPOCH   = 14077
BSTAR          = .66629E-3
MEAN_MOTION_DOT = .31895E-2
MEAN_MOTION_DDOT = .4043E-4

CCSDS_OMM_VERS = 2.0
CREATION_DATE  = 
ORIGINATOR     = 

OBJECT_NAME    = SL-14 R/B
OBJECT_ID      = 1987-024B
CENTER_NAME    = EARTH
REF_FRAME      = TEME
TIME_SYSTEM    = UTC
MEAN_ELEMENT_THEORY = SGP/SGP4

EPOCH          = 2026-02-14T14:40:35.497344
MEAN_MOTION    = 14.86109906
ECCENTRICITY   = .0017632
INCLINATION    = 82.5281
RA_OF_ASC_NODE = 114.4558
ARG_OF_PERICENTER = 341.9587
MEAN_ANOMALY   = 18.1002

EPHEMERIS_TYPE = 0
CLASSIFICATION_TYPE = U
NORAD_CAT_ID   = 17567
ELEMENT_SET_NO = 999
REV_AT_EPOCH   = 8470
BSTAR          = .5107E-4
MEAN_MOTION_DOT = .473E-5
MEAN_MOTION_DDOT = 0

CCSDS_OMM_VERS = 2.0
CREATION_DATE  = 
ORIGINATOR     = 

OBJECT_NAME    = COSMOS 1833
OBJECT_ID      = 1987-027A
CENTER_NAME    = EARTH
REF_FRAME      = TEME
TIME_SYSTEM    = UTC
MEAN_ELEMENT_THEORY = SGP/SGP4

EPOCH          = 2026-02-14T08:35:44.424384
MEAN_MOTION    = 14.13057279
ECCENTRICITY   = .0024905
INCLINATION    = 70.9223
RA_OF_ASC_NODE = 15.0517
ARG_OF_PERICENTER = 245.9636
MEAN_ANOMALY   = 113.8878

EPHEMERIS_TYPE = 0
CLASSIFICATION_TYPE = U
NORAD_CAT_ID   = 17589
ELEMENT_SET_NO = 999
REV_AT_EPOCH   = 702
BSTAR          = .2072E-4
MEAN_MOTION_DOT = -.9E-7
MEAN_MOTION_DDOT = 0

CCSDS_OMM_VERS = 2.0
CREATION_DATE  = 
ORIGINATOR     = 

OBJECT_NAME    = SL-16 R/B
OBJECT_ID      = 1987-027B
CENTER_NAME    = EARTH
REF_FRAME      = TEME
TIME_SYSTEM    = UTC
MEAN_ELEMENT_THEORY = SGP/SGP4

EPOCH          = 2026-02-14T04:30:12.572064
MEAN_MOTION    = 14.17162834
ECCENTRICITY   = .0004743
INCLINATION    = 71.0045
RA_OF_ASC_NODE = 326.0188
ARG_OF_PERICENTER = 184.2122
MEAN_ANOMALY   = 175.8962

EPHEMERIS_TYPE = 0
CLASSIFICATION_TYPE = U
NORAD_CAT_ID   = 17590
ELEMENT_SET_NO = 999
REV_AT_EPOCH   = 1201
BSTAR          = .11843E-4
MEAN_MOTION_DOT = -.24E-6
MEAN_MOTION_DDOT = 0

CCSDS_OMM_VERS = 2.0
CREATION_DATE  = 
ORIGINATOR     = 

OBJECT_NAME    = SL-14 R/B
OBJECT_ID      = 1987-038B
CENTER_NAME    = EARTH
REF_FRAME      = TEME
TIME_SYSTEM    = UTC
MEAN_ELEMENT_THEORY = SGP/SGP4

EPOCH          = 2026-02-14T06:11:11.131008
MEAN_MOTION    = 14.85346842
ECCENTRICITY   = .0017794
INCLINATION    = 82.5039
RA_OF_ASC_NODE = 318.8773
ARG_OF_PERICENTER = 240.0339
MEAN_ANOMALY   = 119.9111

EPHEMERIS_TYPE = 0
CLASSIFICATION_TYPE = U
NORAD_CAT_ID   = 17912
ELEMENT_SET_NO = 999
REV_AT_EPOCH   = 7575
BSTAR          = .60754E-4
MEAN_MOTION_DOT = .547E-5
MEAN_MOTION_DDOT = 0

CCSDS_OMM_VERS = 2.0
CREATION_DATE  = 
ORIGINATOR     = 

OBJECT_NAME    = COSMOS 1844
OBJECT_ID      = 1987-041A
CENTER_NAME    = EARTH
REF_FRAME      = TEME
TIME_SYSTEM    = UTC
MEAN_ELEMENT_THEORY = SGP/SGP4

EPOCH          = 2026-02-14T13:25:39.032256
MEAN_MOTION    = 14.14546311
ECCENTRICITY   = .0028993
INCLINATION    = 70.8979
RA_OF_ASC_NODE = 82.9655
ARG_OF_PERICENTER = 54.8803
MEAN_ANOMALY   = 305.5030

EPHEMERIS_TYPE = 0
CLASSIFICATION_TYPE = U
NORAD_CAT_ID   = 17973
ELEMENT_SET_NO = 999
REV_AT_EPOCH   = 31
BSTAR          = .25223E-3
MEAN_MOTION_DOT = .438E-5
MEAN_MOTION_DDOT = 0

CCSDS_OMM_VERS = 2.0
CREATION_DATE  = 
ORIGINATOR     = 

OBJECT_NAME    = SL-14 R/B
OBJECT_ID      = 1987-055B
CENTER_NAME    = EARTH
REF_FRAME      = TEME
TIME_SYSTEM    = UTC
MEAN_ELEMENT_THEORY = SGP/SGP4

EPOCH          = 2026-02-14T08:57:51.802272
MEAN_MOTION    = 14.85600005
ECCENTRICITY   = .0022334
INCLINATION    = 82.5005
RA_OF_ASC_NODE = 11.0016
ARG_OF_PERICENTER = 90.6091
MEAN_ANOMALY   = 269.7684

EPHEMERIS_TYPE = 0
CLASSIFICATION_TYPE = U
NORAD_CAT_ID   = 18153
ELEMENT_SET_NO = 999
REV_AT_EPOCH   = 6647
BSTAR          = .7045E-4
MEAN_MOTION_DOT = .637E-5
MEAN_MOTION_DDOT = 0

CCSDS_OMM_VERS = 2.0
CREATION_DATE  = 
ORIGINATOR     = 

OBJECT_NAME    = COSMOS 1867
OBJECT_ID      = 1987-060A
CENTER_NAME    = EARTH
REF_FRAME      = TEME
TIME_SYSTEM    = UTC
MEAN_ELEMENT_THEORY = SGP/SGP4

EPOCH          = 2026-02-14T07:36:34.301952
MEAN_MOTION    = 14.31499277
ECCENTRICITY   = .0014157
INCLINATION    = 65.0118
RA_OF_ASC_NODE = 12.1570
ARG_OF_PERICENTER = 277.0210
MEAN_ANOMALY   = 82.9265

EPHEMERIS_TYPE = 0
CLASSIFICATION_TYPE = U
NORAD_CAT_ID   = 18187
ELEMENT_SET_NO = 999
REV_AT_EPOCH   = 1659
BSTAR          = .35547E-4
MEAN_MOTION_DOT = -.6E-7
MEAN_MOTION_DDOT = 0

CCSDS_OMM_VERS = 2.0
CREATION_DATE  = 
ORIGINATOR     = 

OBJECT_NAME    = SL-14 R/B
OBJECT_ID      = 1988-001B
CENTER_NAME    = EARTH
REF_FRAME      = TEME
TIME_SYSTEM    = UTC
MEAN_ELEMENT_THEORY = SGP/SGP4

EPOCH          = 2026-02-14T10:25:45.523488
MEAN_MOTION    = 14.85499105
ECCENTRICITY   = .0017038
INCLINATION    = 82.5112
RA_OF_ASC_NODE = 217.2320
ARG_OF_PERICENTER = 319.1016
MEAN_ANOMALY   = 40.8921

EPHEMERIS_TYPE = 0
CLASSIFICATION_TYPE = U
NORAD_CAT_ID   = 18749
ELEMENT_SET_NO = 999
REV_AT_EPOCH   = 3857
BSTAR          = .65111E-4
MEAN_MOTION_DOT = .587E-5
MEAN_MOTION_DDOT = 0

